DUCHIFAT-1              
1 40021U 14033M   26196.10651526  .00095423  00000+0  75655-3 0  9991
2 40021  98.0418 259.3300 0002759 247.0602 113.0368 15.70998071660129
NANOSATC-BR1            
1 40024U 14033Q   26196.03158592  .00010322  00000+0  33335-3 0  9995
2 40024  98.0712 230.9033 0005301  95.9115 264.2729 15.32325644658240
QB50P1                  
1 40025U 14033R   26196.55167113  .00004446  00000+0  21798-3 0  9992
2 40025  98.0962 209.6951 0010355 123.5579 236.6643 15.18670090657336
DTUSAT-2                
1 40030U 14033W   26195.97454294  .00003349  00000+0  18144-3 0  9994
2 40030  98.0873 195.4742 0009313 132.4073 227.7947 15.15350472656897
QB50P2                  
1 40032U 14033Y   26196.23021955  .00003641  00000+0  19604-3 0  9997
2 40032  98.0760 194.8648 0009323  83.4516 276.7776 15.15506307656917
PERSEUS-M1              
1 40039U 14033AF  26196.40204849  .00001162  00000+0  10973-3 0  9994
2 40039  97.9654 141.0000 0010919 195.4743 164.6145 14.95716338654859
POLYITAN-1              
1 40042U 14033AJ  26196.04073856  .00011373  00000+0  34568-3 0  9991
2 40042  98.0932 224.9562 0007940  64.6154 295.5908 15.34216227657862
TIGRISAT                
1 40043U 14033AK  26196.41191497  .00000723  00000+0  88930-4 0  9995
2 40043  97.7864 345.7834 0048619 343.6307  16.3336 14.85249877649817
CANX-4                  
1 40055U 14034C   26196.11735289  .00000420  00000+0  61209-4 0  9993
2 40055  98.3083  72.4512 0011424 283.1173  76.8763 14.81311066648663
CANX-5                  
1 40056U 14034D   26196.45319819  .00000410  00000+0  59895-4 0  9995
2 40056  98.3085  72.8445 0011413 282.1246  77.8687 14.81328706639523
GONETS-M 10             
1 40063U 14036C   26196.64558021  .00000019  00000+0  61419-4 0  9996
2 40063  82.5129 289.9994 0022943  81.5235 278.8444 12.42946091545780
METEOR-M 2              
1 40069U 14037A   26196.58309186 -.00000255  00000+0 -97317-4 0  9992
2 40069  98.5126 171.3183 0005175 326.1747  33.9100 14.21468312623351
DX1                     
1 40071U 14037C   26196.63311756  .00000455  00000+0  53622-4 0  9998
2 40071  98.3875 160.0652 0007050 169.0092 191.1279 14.90060510650347
UKUBE-1                 
1 40074U 14037F   26196.26136399  .00003915  00000+0  22031-3 0  9991
2 40074  98.4242 202.4925 0003284  87.8667 272.2938 15.13950237652809
GAOFEN-2                
1 40118U 14049A   26196.62204924  .00000967  00000+0  13193-3 0  9996
2 40118  98.0101 260.8004 0008279 133.1294 227.0612 14.80930644643444
BRITE-PL2 (HEWELIUSZ)   
1 40119U 14049B   26196.55779191  .00000515  00000+0  52887-4 0  9995
2 40119  97.9120 308.7813 0014304  21.0628 339.1178 14.94687803645687
CBERS 4                 
1 40336U 14079A   26196.61493380  .00000322  00000+0  12653-3 0  9991
2 40336  98.3520 252.5524 0000815  51.2781 308.8478 14.35517093608031
SMAP                    
1 40376U 15003A   26196.59259408  .00000192  00000+0  46310-4 0  9994
2 40376  98.1284 203.2857 0001602  95.0060 265.1325 14.63389423611779
GONETS-M 11             
1 40552U 15020A   26196.58499093  .00000073  00000+0  45677-3 0  9996
2 40552  82.4859  13.2924 0015388 302.3905  57.5685 12.42878782512263
GONETS-M 12             
1 40553U 15020B   26196.55817718  .00000114  00000+0  75527-3 0  9995
2 40553  82.4892  14.4404 0014255 286.3790  73.5722 12.42892508512253
GONETS-M 13             
1 40554U 15020C   26196.61262988  .00000056  00000+0  33726-3 0  9996
2 40554  82.4854  13.0132 0012793 270.0584  89.9030 12.42872073512237
DMC3-FM1                
1 40715U 15032A   26196.55859455 -.00000148  00000+0 -11190-4 0  9998
2 40715  97.6427  60.6162 0004911 335.7479  24.3505 14.85765855594122
DMC3-FM2                
1 40716U 15032B   26196.58052999  .00000446  00000+0  57294-4 0  9994
2 40716  97.6480  62.2304 0005460 340.5469  19.5538 14.85773840594126
DMC3-FM3                
1 40717U 15032C   26196.60406010  .00000653  00000+0  81115-4 0  9994
2 40717  97.6534  64.0242 0004703 344.0077  16.0990 14.85765161594133
CARBONITE 1 (CBNT-1)    
1 40718U 15032D   26196.57633861  .00000733  00000+0  94789-4 0  9997
2 40718  97.6512  13.4566 0013945 195.8129 164.2653 14.83667428593557
LILACSAT-2              
1 40908U 15049K   26196.57840799  .00011778  00000+0  19458-3 0  9996
2 40908  97.4622 234.5123 0008425 140.4028 219.7841 15.52368215600153
